{
  "norad_id": 65625,
  "name": "STARLINK-35153",
  "history": [
    {
      "epoch": "2026-03-28T17:56:19.930560Z",
      "apogee_km": 476.1175709837171,
      "perigee_km": 474.2042672706548,
      "latitude_deg": 2.625476827551005e-05,
      "longitude_deg": 122.97371649842351,
      "height_km": 475.72727037447424,
      "semi_major_axis_km": 6853.297919127185,
      "eccentricity": 0.00013959,
      "inclination_deg": 53.1594,
      "raan_deg": 218.2202,
      "arg_perigee_deg": 69.718,
      "mean_anomaly_deg": 290.3971,
      "mean_motion_rev_day": 15.30218136
    }
  ]
}